ONEWEB-0055             
1 45443U 20020V   21210.51294424  .00000327  00000-0  88716-3 0  9996
2 45443  87.8919  15.6381 0001821  89.4489 270.6847 13.11419236 68832
ONEWEB-0093             
1 45444U 20020W   21210.41265924 -.00000463  00000-0 -13432-2 0  9994
2 45444  87.8907  15.7105 0001811  92.4673 267.6662 13.11417249 68881
ONEWEB-0029             
1 45445U 20020X   21210.51076309  .00000209  00000-0  55453-3 0  9999
2 45445  87.8912  15.6695 0002190  95.8849 264.2529 13.11419492 68870
ONEWEB-0068             
1 45446U 20020Y   21210.48021731 -.00000375  00000-0 -10928-2 0  9998
2 45446  87.8905  15.6953 0001950  82.1897 277.9452 13.11415066 68818
ONEWEB-0046             
1 45447U 20020Z   21210.47585990 -.00000232  00000-0 -69044-3 0  9996
2 45447  87.8906  15.7010 0001935  99.3907 260.7440 13.11415708 68821
ONEWEB-0063             
1 45448U 20020AA  21210.50639508  .00000043  00000-0  85570-4 0  9997
2 45448  87.8905  15.6990 0001946 105.7975 254.3368 13.11420433 68915
ONEWEB-0019             
1 45449U 20020AB  21210.48239553 -.00000488  00000-0 -14138-2 0  9996
2 45449  87.8910  15.6751 0001668  92.9328 267.1991 13.11415605 68758
ONEWEB-0094             
1 45450U 20020AC  21210.42570951  .00000348  00000-0  86369-3 0  9991
2 45450  87.9137   0.4934 0001698  87.4000 272.7326 13.17651424 71403
ONEWEB-0087             
1 45451U 20020AD  21210.51512173  .00000401  00000-0  10967-2 0  9994
2 45451  87.8917  15.6952 0002302  80.8005 279.3383 13.11413815 68802
ONEWEB-0082             
1 45452U 20020AE  21210.51729979  .00000395  00000-0  10792-2 0  9997
2 45452  87.8908  15.6534 0002102  81.2965 278.8401 13.11421230 68891
ONEWEB-0050             
1 45453U 20020AF  21210.41255479  .00000462  00000-0  39775-4 0  9995
2 45453  87.5460 342.4244 0023841 309.3820  50.5298 14.94661619 74017
ONEWEB-0034             
1 45454U 20020AG  21210.53473185  .00000376  00000-0  10256-2 0  9990
2 45454  87.8905  15.6746 0002013  95.8930 264.2427 13.11414104 68810
ONEWEB-0060             
1 45455U 20020AH  21210.54342388  .00000197  00000-0  52107-3 0  9995
2 45455  87.8907  15.6708 0001821  92.7241 267.4096 13.11418883 68778
ONEWEB-0086             
1 45456U 20020AJ  21210.41046096 -.00000546  00000-0 -15766-2 0  9998
2 45456  87.8907  15.6952 0001995  85.3513 274.7843 13.11416453 68819
ONEWEB-0088             
1 45457U 20020AK  21210.46062062  .00000329  00000-0  89135-3 0  9994
2 45457  87.8902  15.7117 0002041  95.8702 264.2658 13.11416025 68754
ONEWEB-0102             
1 47258U 20100A   21210.41535106 -.00000287  00000-0 -83356-3 0  9997
2 47258  87.8934 345.3530 0001720  86.1074 274.0251 13.12448592 30751
ONEWEB-0109             
1 47259U 20100B   21210.34968610  .00000172  00000-0  44274-3 0  9997
2 47259  87.8908 345.2131 0001458  87.7025 272.4271 13.12444972 30572
ONEWEB-0110             
1 47260U 20100C   21210.44710607  .00000485  00000-0  13121-2 0  9994
2 47260  87.8955 345.2644 0001641  84.7742 275.3573 13.12438628 30750
ONEWEB-0111             
1 47261U 20100D   21210.40261724 -.00000369  00000-0 -10603-2 0  9997
2 47261  87.8958 345.2992 0001869  89.2653 270.8690 13.12440306 30580
ONEWEB-0114             
1 47262U 20100E   21210.35817358  .00000405  00000-0  10893-2 0  9992
2 47262  87.8882 345.1916 0001470  95.8100 264.3196 13.12444639 30537
ONEWEB-0117             
1 47263U 20100F   21210.35181542  .00000224  00000-0  58693-3 0  9992
2 47263  87.8909 345.2922 0001698  91.3055 268.8268 13.12441571 30540
ONEWEB-0118             
1 47264U 20100G   21210.37932345  .00000280  00000-0  74360-3 0  9991
2 47264  87.8941 345.2955 0001543  97.4128 262.7176 13.12445357 30749
ONEWEB-0119             
1 47265U 20100H   21210.40899232 -.00000279  00000-0 -81140-3 0  9997
2 47265  87.8931 345.3633 0001751  90.3119 269.8210 13.12441447 30727
ONEWEB-0120             
1 47266U 20100J   21210.36239356  .00000456  00000-0  12312-2 0  9997
2 47266  87.9005 345.2328 0001489  92.6265 267.5034 13.12445040 30740
ONEWEB-0121             
1 47267U 20100K   21210.34757671  .00000104  00000-0  25344-3 0  9991
2 47267  87.9014 345.2857 0001923  89.0146 271.1203 13.12445353 30655
ONEWEB-0122             
1 47268U 20100L   21210.41745183 -.00000168  00000-0 -50211-3 0  9998
2 47268  87.8923 345.2634 0001980 101.8332 258.3019 13.12436278 30579
ONEWEB-0123             
1 47269U 20100M   21210.41108787 -.00000563  00000-0 -15999-2 0  9994
2 47269  87.8947 345.3186 0001681  96.2292 263.9028 13.12442868 30719
ONEWEB-0124             
1 47270U 20100N   21210.39627327 -.00000279  00000-0 -81068-3 0  9994
2 47270  87.8916 345.2828 0001854  94.0948 266.0393 13.12443748 30598
ONEWEB-0125             
1 47271U 20100P   21210.45132924  .00000343  00000-0  91686-3 0  9993
2 47271  87.8992 345.2839 0001831  97.0645 263.0692 13.12443402 30661
ONEWEB-0126             
1 47272U 20100Q   21210.40051035 -.00000275  00000-0 -80076-3 0  9999
2 47272  87.8947 345.3670 0001546  88.6402 271.4904 13.12444314 30725
ONEWEB-0127             
1 47273U 20100R   21210.36452845  .00000497  00000-0  13466-2 0  9991
2 47273  87.8924 345.2922 0001473  92.9600 267.1697 13.12444707 30746
ONEWEB-0128             
1 47274U 20100S   21210.38358701  .00000088  00000-0  20998-3 0  9995
2 47274  87.8945 345.2821 0001791  87.1622 272.9712 13.12445395 30769
ONEWEB-0129             
1 47275U 20100T   21210.36662974  .00000416  00000-0  11197-2 0  9999
2 47275  87.8957 345.2122 0000457 275.9189  84.1887 13.12444344 30691
ONEWEB-0130             
1 47276U 20100U   21210.39204917 -.00000220  00000-0 -64636-3 0  9994
2 47276  87.8979 345.2674 0001670  78.7295 281.4021 13.12441051 30664
ONEWEB-0131             
1 47277U 20100V   21210.38783238 -.00000085  00000-0 -27250-3 0  9992
2 47277  87.8979 345.2157 0001671  90.2561 269.8759 13.12437915 30704
ONEWEB-0132             
1 47278U 20100W   21210.34545416  .00000006  00000-0 -19245-4 0  9991
2 47278  87.8941 345.3714 0001657 102.5723 257.5590 13.12443017 30599
ONEWEB-0133             
1 47279U 20100X   21210.36027589  .00000441  00000-0  11915-2 0  9996
2 47279  87.8965 345.2388 0001580  90.1847 269.9462 13.12444635 30756
ONEWEB-0134             
1 47280U 20100Y   21210.40474690 -.00000385  00000-0 -11050-2 0  9991
2 47280  87.8933 345.2889 0002086  93.9679 266.1688 13.12444675 30736
ONEWEB-0135             
1 47281U 20100Z   21210.44922525  .00000351  00000-0  93898-3 0  9993
2 47281  87.8937 345.2633 0001537  86.9140 273.2164 13.12439985 30762
ONEWEB-0136             
1 47282U 20100AA  21210.39415097 -.00000216  00000-0 -63674-3 0  9990
2 47282  87.8960 345.2167 0001736  80.3340 279.7985 13.12443874 30687
ONEWEB-0137             
1 47283U 20100AB  21210.35605371  .00000370  00000-0  99401-3 0  9999
2 47283  87.8921 345.3675 0001411 103.5266 256.6020 13.12440908 30583
ONEWEB-0138             
1 47284U 20100AC  21210.40685158 -.00000596  00000-0 -16909-2 0  9990
2 47284  87.8925 345.3418 0001579  89.8814 270.2495 13.12442721 30676
ONEWEB-0139             
1 47285U 20100AD  21210.37722550  .00000307  00000-0  81695-3 0  9998
2 47285  87.8978 345.3342 0001818  88.1686 271.9651 13.12442691 30742
ONEWEB-0140             
1 47286U 20100AE  21210.39838390 -.00000284  00000-0 -82540-3 0  9997
2 47286  87.8954 345.3125 0001648  82.0087 278.1229 13.12440417 30716
ONEWEB-0141             
1 47287U 20100AF  21210.38993946 -.00000104  00000-0 -32583-3 0  9999
2 47287  87.8929 345.3325 0001582  91.2331 268.8979 13.12439889 30698
ONEWEB-0142             
1 47288U 20100AG  21210.41322292 -.00000226  00000-0 -66401-3 0  9995
2 47288  87.8955 345.3852 0001626 106.9560 253.1747 13.12441585 30696
ONEWEB-0143             
1 47289U 20100AH  21210.36875420  .00000400  00000-0  10768-2 0  9992
2 47289  87.8977 345.2498 0001686  92.4697 267.6624 13.12440284 30668
ONEWEB-0144             
1 47290U 20100AJ  21210.41957847 -.00000008  00000-0 -56553-4 0  9994
2 47290  87.8904 345.1810 0001973  89.8160 270.3194 13.12446026 30596
ONEWEB-0145             
1 47291U 20100AK  21210.38568220  .00000010  00000-0 -84568-5 0  9994
2 47291  87.8953 345.2952 0001616  88.5943 271.5371 13.12441102 30789
ONEWEB-0146             
1 47292U 20100AL  21210.38144976  .00000136  00000-0  34294-3 0  9990
2 47292  87.8939 345.3373 0001691  88.8464 271.2858 13.12440816 30694
ONEWEB-0147             
1 47293U 20100AM  21210.35391057  .00000338  00000-0  90519-3 0  9998
2 47293  87.8957 345.3207 0001358  56.0414 304.0843 13.12445739 30589
ONEWEB-0115             
1 48042U 21025A   21210.91668981  .00000013  00000-0  00000+0 0  9995
2 48042  87.9103 314.5955 0001927 136.6817 131.7170 13.19475917 19503
ONEWEB-0152             
1 48043U 21025B   21210.91668981 -.00046340  00000-0 -12866+0 0  9994
2 48043  87.8915 314.6147 0002055 111.2255 110.9205 13.12886895 19463
ONEWEB-0153             
1 48044U 21025C   21210.91668981  .00000013  00000-0  00000+0 0  9997
2 48044  87.9037 314.6962 0001320  95.0430 299.3923 13.13792713 19468
ONEWEB-0154             
1 48045U 21025D   21210.66667824  .00043303  00000-0  11802+0 0  9996
2 48045  87.8891 314.6642 0001510 114.5477 123.4551 13.13451118  3378
ONEWEB-0116             
1 48046U 21025E   21210.91668981  .00000013  00000-0  00000+0 0  9999
2 48046  87.9287 314.5693 0001598 106.5595 250.6526 13.23585979 19558
ONEWEB-0150             
1 48047U 21025F   21210.91668981 -.00045304  00000-0 -12460+0 0  9997
2 48047  87.8902 314.7015 0002191 119.7936 149.6440 13.13527331 19455
ONEWEB-0107             
1 48048U 21025G   21210.66667824 -.00024058  00000-0 -67982-1 0  9999
2 48048  87.8930 314.6496 0001684 110.8745  66.3218 13.11529647  3333
ONEWEB-0101             
1 48049U 21025H   21210.66667824  .00042033  00000-0  11711+0 0  9998
2 48049  87.8915 314.7732 0002244 103.0665 228.3288 13.11950745  3333
